ONEWEB-0665             
1 55825U 23029AF  25294.68134286 -.00000185  00000+0 -53255-3 0  9999
2 55825  87.9031 337.2469 0001820 107.0207 253.1123 13.14500826128072
ONEWEB-0666             
1 55826U 23029AG  25294.85428539  .00000008  00000+0 -11779-4 0  9995
2 55826  87.9206 322.0212 0002321  78.5536 281.5858 13.20770435129690
ONEWEB-0667             
1 55827U 23029AH  25294.92372058  .00000048  00000+0  86230-4 0  9995
2 55827  87.9210 321.9365 0001754  99.1833 260.9499 13.20774397129694
ONEWEB-0669             
1 55828U 23029AJ  25294.91900431  .00000043  00000+0  73014-4 0  9998
2 55828  87.9204 321.9762 0001514  73.7102 286.4198 13.20771886129699
ONEWEB-0670             
1 55829U 23029AK  25294.88750963  .00000258  00000+0  66063-3 0  9991
2 55829  87.9032 337.2260 0001483 102.9915 257.1380 13.14503158128127
ONEWEB-0671             
1 55830U 23029AL  25294.92296303 -.00000615  00000+0 -15688-2 0  9996
2 55830  87.9249 352.3848 0001852 103.3389 256.7951 13.19718754127470
ONEWEB-0672             
1 55831U 23029AM  25294.61124322  .00000001  00000+0 -30439-4 0  9995
2 55831  87.9202 322.0188 0001944  86.3970 273.7385 13.20770556129651
ONEWEB-0673             
1 55832U 23029AN  25294.89926543  .00000025  00000+0  29868-4 0  9990
2 55832  87.9266 352.3611 0002034 103.1851 256.9509 13.19724746127473
